[
  {
    "name": "ONEWEB-0132",
    "noradId": "47278",
    "line1": "1 47278U 20100W   26180.48945409 -.00000412  00000+0 -11806-2 0  9997",
    "line2": "2 47278  87.8946 348.2246 0001779  94.1576 265.9755 13.12441844266192"
  },
  {
    "name": "ONEWEB-0133",
    "noradId": "47279",
    "line1": "1 47279U 20100X   26180.50626480 -.00000145  00000+0 -43834-3 0  9996",
    "line2": "2 47279  87.8959 348.1989 0001690  95.3859 264.7462 13.12443914266359"
  },
  {
    "name": "ONEWEB-0134",
    "noradId": "47280",
    "line1": "1 47280U 20100Y   26180.47590384  .00000007  00000+0 -15603-4 0  9997",
    "line2": "2 47280  87.8958 348.2018 0001827 101.8687 258.2646 13.12440425266321"
  },
  {
    "name": "ONEWEB-0135",
    "noradId": "47281",
    "line1": "1 47281U 20100Z   26180.44711306  .00000388  00000+0  10422-2 0  9997",
    "line2": "2 47281  87.8944 348.2290 0001715 102.3638 257.7682 13.12442669266345"
  },
  {
    "name": "ONEWEB-0136",
    "noradId": "47282",
    "line1": "1 47282U 20100AA  26180.46574662  .00000296  00000+0  78780-3 0  9992",
    "line2": "2 47282  87.8953 348.2074 0001838 103.5041 256.6293 13.12440850266271"
  },
  {
    "name": "ONEWEB-0137",
    "noradId": "47283",
    "line1": "1 47283U 20100AB  26180.49962631 -.00000284  00000+0 -82600-3 0  9998",
    "line2": "2 47283  87.8959 348.2116 0001931  89.5827 270.5522 13.12443418266187"
  },
  {
    "name": "ONEWEB-0138",
    "noradId": "47284",
    "line1": "1 47284U 20100AC  26180.47760264 -.00000089  00000+0 -28396-3 0  9990",
    "line2": "2 47284  87.8954 348.2208 0001893 100.0503 260.0839 13.12441014266266"
  },
  {
    "name": "ONEWEB-0139",
    "noradId": "47285",
    "line1": "1 47285U 20100AD  26180.51841036  .00000255  00000+0  67248-3 0  9995",
    "line2": "2 47285  87.8953 348.1991 0001865  94.1050 266.0292 13.12442732266349"
  },
  {
    "name": "ONEWEB-0140",
    "noradId": "47286",
    "line1": "1 47286U 20100AE  26180.47252102  .00000125  00000+0  31181-3 0  9994",
    "line2": "2 47286  87.8954 348.1990 0001646  94.0391 266.0925 13.12440777266300"
  },
  {
    "name": "ONEWEB-0141",
    "noradId": "47287",
    "line1": "1 47287U 20100AF  26180.51812903  .00000194  00000+0  50391-3 0  9991",
    "line2": "2 47287  87.8952 348.1950 0002048  87.1420 272.9942 13.12443793266292"
  },
  {
    "name": "ONEWEB-0142",
    "noradId": "47288",
    "line1": "1 47288U 20100AG  26180.50655495 -.00000104  00000+0 -32469-3 0  9991",
    "line2": "2 47288  87.8948 348.2182 0002268  93.9054 266.2333 13.12444912266281"
  },
  {
    "name": "ONEWEB-0143",
    "noradId": "47289",
    "line1": "1 47289U 20100AH  26180.51657368  .00000096  00000+0  23091-3 0  9993",
    "line2": "2 47289  87.8950 348.2156 0001856  92.3507 267.7834 13.12443770266265"
  },
  {
    "name": "ONEWEB-0144",
    "noradId": "47290",
    "line1": "1 47290U 20100AJ  26180.48776372 -.00000382  00000+0 -10962-2 0  9990",
    "line2": "2 47290  87.8958 348.1956 0002074 101.3299 258.8063 13.12441549266182"
  },
  {
    "name": "ONEWEB-0145",
    "noradId": "47291",
    "line1": "1 47291U 20100AK  26180.45897375  .00000479  00000+0  12974-2 0  9995",
    "line2": "2 47291  87.8946 348.2279 0001896  94.3744 265.7602 13.12441504266374"
  },
  {
    "name": "ONEWEB-0146",
    "noradId": "47292",
    "line1": "1 47292U 20100AL  26180.45558757  .00000490  00000+0  13257-2 0  9992",
    "line2": "2 47292  87.8954 348.2212 0001524  87.1450 272.9852 13.12441888266285"
  },
  {
    "name": "ONEWEB-0147",
    "noradId": "47293",
    "line1": "1 47293U 20100AM  26180.49793345 -.00000424  00000+0 -12132-2 0  9991",
    "line2": "2 47293  87.8956 348.1948 0001744  97.3259 262.8068 13.12443218266182"
  },
  {
    "name": "ONEWEB-0115",
    "noradId": "48042",
    "line1": "1 48042U 21025A   26180.36413564  .00000334  00000+0  88092-3 0  9996",
    "line2": "2 48042  87.8969 317.7992 0001790  97.4784 262.6548 13.13470332255193"
  },
  {
    "name": "ONEWEB-0152",
    "noradId": "48043",
    "line1": "1 48043U 21025B   26180.37766339 -.00005882  00000+0 -16146-1 0  9993",
    "line2": "2 48043  87.8975 317.7938 0001840 101.4338 258.6998 13.13500212255159"
  },
  {
    "name": "ONEWEB-0153",
    "noradId": "48044",
    "line1": "1 48044U 21025C   26180.35565657  .00000141  00000+0  34984-3 0  9995",
    "line2": "2 48044  87.8963 317.8003 0001943  98.9006 261.2343 13.13471178255148"
  },
  {
    "name": "ONEWEB-0154",
    "noradId": "48045",
    "line1": "1 48045U 21025D   26180.35227513  .00000081  00000+0  18603-3 0  9995",
    "line2": "2 48045  87.8973 317.7991 0001747 103.0888 257.0437 13.13469596255107"
  },
  {
    "name": "ONEWEB-0116",
    "noradId": "48046",
    "line1": "1 48046U 21025E   26180.39123000 -.00000572  00000+0 -16007-2 0  9998",
    "line2": "2 48046  87.8973 317.7882 0001788  97.8413 262.2919 13.13475107255250"
  },
  {
    "name": "ONEWEB-0150",
    "noradId": "48047",
    "line1": "1 48047U 21025F   26180.44369402  .00000359  00000+0  94839-3 0  9994",
    "line2": "2 48047  87.8972 317.7753 0001977  93.1167 267.0189 13.13471367255157"
  },
  {
    "name": "ONEWEB-0107",
    "noradId": "48048",
    "line1": "1 48048U 21025G   26180.36921022  .00000391  00000+0  10348-2 0  9996",
    "line2": "2 48048  87.8974 317.7861 0002110 100.5324 259.6042 13.13470578255123"
  },
  {
    "name": "ONEWEB-0101",
    "noradId": "48049",
    "line1": "1 48049U 21025H   26180.40814905 -.00000558  00000+0 -15628-2 0  9996",
    "line2": "2 48049  87.8965 317.7927 0001736  99.2223 260.9102 13.13474796255108"
  },
  {
    "name": "ONEWEB-0113",
    "noradId": "48050",
    "line1": "1 48050U 21025J   26180.42856265 -.00000048  00000+0 -16535-3 0  9998",
    "line2": "2 48050  87.8968 317.6978 0001840  94.2146 265.9194 13.13892969255217"
  },
  {
    "name": "ONEWEB-0112",
    "noradId": "48051",
    "line1": "1 48051U 21025K   26180.37428455  .00000370  00000+0  97882-3 0  9999",
    "line2": "2 48051  87.8975 317.7832 0001984 105.4407 254.6941 13.13470853255196"
  },
  {
    "name": "ONEWEB-0156",
    "noradId": "48052",
    "line1": "1 48052U 21025L   26180.38276679  .00001257  00000+0  34071-2 0  9995",
    "line2": "2 48052  87.8978 317.7911 0002206  81.2146 278.9233 13.13464236255176"
  },
  {
    "name": "ONEWEB-0161",
    "noradId": "48053",
    "line1": "1 48053U 21025M   26180.35734832  .00000086  00000+0  20060-3 0  9996",
    "line2": "2 48053  87.8971 317.7977 0002040  98.1782 261.9579 13.13470707255109"
  },
  {
    "name": "ONEWEB-0158",
    "noradId": "48054",
    "line1": "1 48054U 21025N   26180.39289061  .00000111  00000+0  26791-3 0  9996",
    "line2": "2 48054  87.8982 317.7875 0001686 104.2620 255.8696 13.13474461255231"
  },
  {
    "name": "ONEWEB-0157",
    "noradId": "48055",
    "line1": "1 48055U 21025P   26180.34212737 -.00000173  00000+0 -50735-3 0  9993",
    "line2": "2 48055  87.8971 317.8034 0002248 102.4965 257.6416 13.13470772255168"
  }
]