OBJECT_NAME,OBJECT_ID,EPOCH,MEAN_MOTION,ECCENTRICITY,INCLINATION,RA_OF_ASC_NODE,ARG_OF_PERICENTER,MEAN_ANOMALY,EPHEMERIS_TYPE,CLASSIFICATION_TYPE,NORAD_CAT_ID,ELEMENT_SET_NO,REV_AT_EPOCH,BSTAR,MEAN_MOTION_DOT,MEAN_MOTION_DDOT
ONEWEB-0132,2020-100W,2026-06-29T11:44:48.833376,13.12441844,.0001779,87.8946,348.2246,94.1576,265.9755,0,U,47278,999,26619,-.11806E-2,-.412E-5,0
ONEWEB-0133,2020-100X,2026-06-29T12:09:01.278720,13.12443914,.000169,87.8959,348.1989,95.3859,264.7462,0,U,47279,999,26635,-.43834E-3,-.145E-5,0
ONEWEB-0134,2020-100Y,2026-06-29T11:25:18.091776,13.12440425,.0001827,87.8958,348.2018,101.8687,258.2646,0,U,47280,999,26632,-.15603E-4,.7E-7,0
ONEWEB-0135,2020-100Z,2026-06-29T10:43:50.568384,13.12442669,.0001715,87.8944,348.2290,102.3638,257.7682,0,U,47281,999,26634,.10422E-2,.388E-5,0
ONEWEB-0136,2020-100AA,2026-06-29T11:10:40.507968,13.12440850,.0001838,87.8953,348.2074,103.5041,256.6293,0,U,47282,999,26627,.7878E-3,.296E-5,0
ONEWEB-0137,2020-100AB,2026-06-29T11:59:27.713184,13.12443418,.0001931,87.8959,348.2116,89.5827,270.5522,0,U,47283,999,26618,-.826E-3,-.284E-5,0
ONEWEB-0138,2020-100AC,2026-06-29T11:27:44.868096,13.12441014,.0001893,87.8954,348.2208,100.0503,260.0839,0,U,47284,999,26626,-.28396E-3,-.89E-6,0
ONEWEB-0139,2020-100AD,2026-06-29T12:26:30.655104,13.12442732,.0001865,87.8953,348.1991,94.1050,266.0292,0,U,47285,999,26634,.67248E-3,.255E-5,0
ONEWEB-0140,2020-100AE,2026-06-29T11:20:25.816128,13.12440777,.0001646,87.8954,348.1990,94.0391,266.0925,0,U,47286,999,26630,.31181E-3,.125E-5,0
ONEWEB-0141,2020-100AF,2026-06-29T12:26:06.348192,13.12443793,.0002048,87.8952,348.1950,87.1420,272.9942,0,U,47287,999,26629,.50391E-3,.194E-5,0
ONEWEB-0142,2020-100AG,2026-06-29T12:09:26.347680,13.12444912,.0002268,87.8948,348.2182,93.9054,266.2333,0,U,47288,999,26628,-.32469E-3,-.104E-5,0
ONEWEB-0143,2020-100AH,2026-06-29T12:23:51.965952,13.12443770,.0001856,87.8950,348.2156,92.3507,267.7834,0,U,47289,999,26626,.23091E-3,.96E-6,0
ONEWEB-0144,2020-100AJ,2026-06-29T11:42:22.785408,13.12441549,.0002074,87.8958,348.1956,101.3299,258.8063,0,U,47290,999,26618,-.10962E-2,-.382E-5,0
ONEWEB-0145,2020-100AK,2026-06-29T11:00:55.332000,13.12441504,.0001896,87.8946,348.2279,94.3744,265.7602,0,U,47291,999,26637,.12974E-2,.479E-5,0
ONEWEB-0146,2020-100AL,2026-06-29T10:56:02.766048,13.12441888,.0001524,87.8954,348.2212,87.1450,272.9852,0,U,47292,999,26628,.13257E-2,.49E-5,0
ONEWEB-0147,2020-100AM,2026-06-29T11:57:01.450080,13.12443218,.0001744,87.8956,348.1948,97.3259,262.8068,0,U,47293,999,26618,-.12132E-2,-.424E-5,0
ONEWEB-0115,2021-025A,2026-06-29T08:44:21.319296,13.13470332,.000179,87.8969,317.7992,97.4784,262.6548,0,U,48042,999,25519,.88092E-3,.334E-5,0
ONEWEB-0152,2021-025B,2026-06-29T09:03:50.116896,13.13500212,.000184,87.8975,317.7938,101.4338,258.6998,0,U,48043,999,25515,-.16146E-1,-.5882E-4,0
ONEWEB-0153,2021-025C,2026-06-29T08:32:08.727648,13.13471178,.0001943,87.8963,317.8003,98.9006,261.2343,0,U,48044,999,25514,.34984E-3,.141E-5,0
ONEWEB-0154,2021-025D,2026-06-29T08:27:16.571232,13.13469596,.0001747,87.8973,317.7991,103.0888,257.0437,0,U,48045,999,25510,.18603E-3,.81E-6,0
ONEWEB-0116,2021-025E,2026-06-29T09:23:22.272000,13.13475107,.0001788,87.8973,317.7882,97.8413,262.2919,0,U,48046,999,25525,-.16007E-2,-.572E-5,0
ONEWEB-0150,2021-025F,2026-06-29T10:38:55.163328,13.13471367,.0001977,87.8972,317.7753,93.1167,267.0189,0,U,48047,999,25515,.94839E-3,.359E-5,0
ONEWEB-0107,2021-025G,2026-06-29T08:51:39.763008,13.13470578,.000211,87.8974,317.7861,100.5324,259.6042,0,U,48048,999,25512,.10348E-2,.391E-5,0
ONEWEB-0101,2021-025H,2026-06-29T09:47:44.077920,13.13474796,.0001736,87.8965,317.7927,99.2223,260.9102,0,U,48049,999,25510,-.15628E-2,-.558E-5,0
ONEWEB-0113,2021-025J,2026-06-29T10:17:07.812960,13.13892969,.000184,87.8968,317.6978,94.2146,265.9194,0,U,48050,999,25521,-.16535E-3,-.48E-6,0
ONEWEB-0112,2021-025K,2026-06-29T08:58:58.185120,13.13470853,.0001984,87.8975,317.7832,105.4407,254.6941,0,U,48051,999,25519,.97882E-3,.37E-5,0
ONEWEB-0156,2021-025L,2026-06-29T09:11:11.050656,13.13464236,.0002206,87.8978,317.7911,81.2146,278.9233,0,U,48052,999,25517,.34071E-2,.1257E-4,0
ONEWEB-0161,2021-025M,2026-06-29T08:34:34.894848,13.13470707,.000204,87.8971,317.7977,98.1782,261.9579,0,U,48053,999,25510,.2006E-3,.86E-6,0
ONEWEB-0158,2021-025N,2026-06-29T09:25:45.748704,13.13474461,.0001686,87.8982,317.7875,104.2620,255.8696,0,U,48054,999,25523,.26791E-3,.111E-5,0
ONEWEB-0157,2021-025P,2026-06-29T08:12:39.804768,13.13470772,.0002248,87.8971,317.8034,102.4965,257.6416,0,U,48055,999,25516,-.50735E-3,-.173E-5,0
